[{"OBJECT_NAME":"STARLINK-35263","OBJECT_ID":"2025-207F","EPOCH":"2026-03-09T16:56:44.925792","MEAN_MOTION":15.0564883,"ECCENTRICITY":8.347e-5,"INCLINATION":97.6026,"RA_OF_ASC_NODE":138.6761,"ARG_OF_PERICENTER":95.0935,"MEAN_ANOMALY":265.0387,"EPHEMERIS_TYPE":0,"CLASSIFICATION_TYPE":"U","NORAD_CAT_ID":65597,"ELEMENT_SET_NO":999,"REV_AT_EPOCH":2826,"BSTAR":0.00019501353,"MEAN_MOTION_DOT":2.754e-5,"MEAN_MOTION_DDOT":0},{"OBJECT_NAME":"COSMOS 2251 DEB","OBJECT_ID":"1993-036GR","EPOCH":"2026-03-09T03:51:30.155616","MEAN_MOTION":15.03624382,"ECCENTRICITY":0.001162,"INCLINATION":74.0519,"RA_OF_ASC_NODE":328.1155,"ARG_OF_PERICENTER":228.8449,"MEAN_ANOMALY":281.5146,"EPHEMERIS_TYPE":0,"CLASSIFICATION_TYPE":"U","NORAD_CAT_ID":34006,"ELEMENT_SET_NO":999,"REV_AT_EPOCH":89963,"BSTAR":0.0037151817,"MEAN_MOTION_DOT":0.00051242,"MEAN_MOTION_DDOT":0}]
